STARLINK-1461_new
1 15730C 20038A   21326.13751258 -.00018163  00000-0 -12168-2 0  3263
2 15730  53.0538  78.1154 0001053  83.5305 334.9167 15.06422234    17
STARLINK-1461_old
1 25730C 20038A   21325.17291444  .00005765  00000-0  38625-3 0  3250
2 25730  53.0533  82.4455 0001036  86.8925 137.5997 15.06395561    19
